[{"OBJECT_NAME":"STARLINK-30424","OBJECT_ID":"2023-141T","EPOCH":"2026-03-09T22:03:56.584224","MEAN_MOTION":15.30169351,"ECCENTRICITY":0.0001696,"INCLINATION":53.16,"RA_OF_ASC_NODE":257.0451,"ARG_OF_PERICENTER":123.1618,"MEAN_ANOMALY":236.9545,"EPHEMERIS_TYPE":0,"CLASSIFICATION_TYPE":"U","NORAD_CAT_ID":57857,"ELEMENT_SET_NO":999,"REV_AT_EPOCH":14072,"BSTAR":-0.00010395123,"MEAN_MOTION_DOT":-3.434e-5,"MEAN_MOTION_DDOT":0},{"OBJECT_NAME":"PEGASUS DEB","OBJECT_ID":"1994-029AG","EPOCH":"2026-03-09T11:16:42.963744","MEAN_MOTION":15.37636263,"ECCENTRICITY":0.0031206,"INCLINATION":82.0362,"RA_OF_ASC_NODE":86.2933,"ARG_OF_PERICENTER":155.6019,"MEAN_ANOMALY":204.671,"EPHEMERIS_TYPE":0,"CLASSIFICATION_TYPE":"U","NORAD_CAT_ID":23986,"ELEMENT_SET_NO":999,"REV_AT_EPOCH":61542,"BSTAR":0.00061808813,"MEAN_MOTION_DOT":0.00023279,"MEAN_MOTION_DDOT":0}]
